[
    {
        "Altitude(m)": 717876.7871302296,
        "Argument of Periapsis(deg)": 0.006834072711976239,
        "Eccentricity": 0.0,
        "Inclination(deg)": 45.0,
        "Latitude(deg)": -45.14032163145628,
        "Longitude(deg)": 157.7765347495514,
        "Mean Anomaly(deg)": -91.26187001151146,
        "RAAN(deg)": 349.9935488351251,
        "Satellite Name": "Constellation 1 1556",
        "Satellite Number": 1556,
        "Semi-Major Axis(m)": 7083131.272910544,
        "Time(s)": 114
    },
    {
        "Altitude(m)": 717877.311834422,
        "Argument of Periapsis(deg)": 0.006894020718221645,
        "Eccentricity": 0.0,
        "Inclination(deg)": 45.0,
        "Latitude(deg)": -45.14161518102965,
        "Longitude(deg)": 157.85802437655394,
        "Mean Anomaly(deg)": -91.20116887126167,
        "RAAN(deg)": 349.9934922459595,
        "Satellite Name": "Constellation 1 1556",
        "Satellite Number": 1556,
        "Semi-Major Axis(m)": 7083131.272910544,
        "Time(s)": 115
    },
    {
        "Altitude(m)": 717877.8101504165,
        "Argument of Periapsis(deg)": 0.006953968724467052,
        "Eccentricity": 0.0,
        "Inclination(deg)": 45.0,
        "Latitude(deg)": -45.14284459966942,
        "Longitude(deg)": 157.93951777090828,
        "Mean Anomaly(deg)": -91.14046773101174,
        "RAAN(deg)": 349.99343565679396,
        "Satellite Name": "Constellation 1 1556",
        "Satellite Number": 1556,
        "Semi-Major Axis(m)": 7083131.272910544,
        "Time(s)": 116
    },
    {
        "Altitude(m)": 717878.2820763591,
        "Argument of Periapsis(deg)": 0.007013916730712457,
        "Eccentricity": 0.0,
        "Inclination(deg)": 45.0,
        "Latitude(deg)": -45.14400988193405,
        "Longitude(deg)": 158.02101474139974,
        "Mean Anomaly(deg)": -91.0797665907618,
        "RAAN(deg)": 349.9933790676284,
        "Satellite Name": "Constellation 1 1556",
        "Satellite Number": 1556,
        "Semi-Major Axis(m)": 7083131.272910544,
        "Time(s)": 117
    },
    {
        "Altitude(m)": 717878.7276104814,
        "Argument of Periapsis(deg)": 0.007073864736957864,
        "Eccentricity": 0.0,
        "Inclination(deg)": 45.0,
        "Latitude(deg)": -45.14511102266521,
        "Longitude(deg)": 158.10251509674958,
        "Mean Anomaly(deg)": -91.01906545051192,
        "RAAN(deg)": 349.9933224784628,
        "Satellite Name": "Constellation 1 1556",
        "Satellite Number": 1556,
        "Semi-Major Axis(m)": 7083131.272910544,
        "Time(s)": 118
    },
    {
        "Altitude(m)": 717879.1467511225,
        "Argument of Periapsis(deg)": 0.0071338127432032696,
        "Eccentricity": 0.0,
        "Inclination(deg)": 45.0,
        "Latitude(deg)": -45.146148016987816,
        "Longitude(deg)": 158.18401847752185,
        "Mean Anomaly(deg)": -90.95836431026208,
        "RAAN(deg)": 349.9932658892973,
        "Satellite Name": "Constellation 1 1556",
        "Satellite Number": 1556,
        "Semi-Major Axis(m)": 7083131.272910544,
        "Time(s)": 119
    },
    {
        "Altitude(m)": 717879.5394967116,
        "Argument of Periapsis(deg)": 0.007193760749448674,
        "Eccentricity": 0.0,
        "Inclination(deg)": 45.0,
        "Latitude(deg)": -45.147120860311105,
        "Longitude(deg)": 158.26552502851442,
        "Mean Anomaly(deg)": -90.89766317001208,
        "RAAN(deg)": 349.99320930013164,
        "Satellite Name": "Constellation 1 1556",
        "Satellite Number": 1556,
        "Semi-Major Axis(m)": 7083131.272910544,
        "Time(s)": 120
    },
    {
        "Altitude(m)": 717879.9058457816,
        "Argument of Periapsis(deg)": 0.007253708755694079,
        "Eccentricity": 0.0,
        "Inclination(deg)": 45.0,
        "Latitude(deg)": -45.1480295483271,
        "Longitude(deg)": 158.34703439018006,
        "Mean Anomaly(deg)": -90.83696202976219,
        "RAAN(deg)": 349.9931527109661,
        "Satellite Name": "Constellation 1 1556",
        "Satellite Number": 1556,
        "Semi-Major Axis(m)": 7083131.272910544,
        "Time(s)": 121
    },
    {
        "Altitude(m)": 717880.2457969594,
        "Argument of Periapsis(deg)": 0.0073136567619394854,
        "Eccentricity": 0.0,
        "Inclination(deg)": 45.0,
        "Latitude(deg)": -45.14887407701186,
        "Longitude(deg)": 158.42854637101863,
        "Mean Anomaly(deg)": -90.77626088951236,
        "RAAN(deg)": 349.99309612180053,
        "Satellite Name": "Constellation 1 1556",
        "Satellite Number": 1556,
        "Semi-Major Axis(m)": 7083131.272910544,
        "Time(s)": 122
    },
    {
        "Altitude(m)": 717880.5593489679,
        "Argument of Periapsis(deg)": 0.0073736047681848904,
        "Eccentricity": 0.0,
        "Inclination(deg)": 45.0,
        "Latitude(deg)": -45.14965444262521,
        "Longitude(deg)": 158.51006077948324,
        "Mean Anomaly(deg)": -90.71555974926243,
        "RAAN(deg)": 349.99303953263495,
        "Satellite Name": "Constellation 1 1556",
        "Satellite Number": 1556,
        "Semi-Major Axis(m)": 7083131.272910544,
        "Time(s)": 123
    },
    {
        "Altitude(m)": 717880.8465006291,
        "Argument of Periapsis(deg)": 0.007433552774430298,
        "Eccentricity": 0.0,
        "Inclination(deg)": 45.0,
        "Latitude(deg)": -45.15037064171088,
        "Longitude(deg)": 158.5915774239832,
        "Mean Anomaly(deg)": -90.65485860901249,
        "RAAN(deg)": 349.99298294346943,
        "Satellite Name": "Constellation 1 1556",
        "Satellite Number": 1556,
        "Semi-Major Axis(m)": 7083131.272910544,
        "Time(s)": 124
    },
    {
        "Altitude(m)": 717881.1072508646,
        "Argument of Periapsis(deg)": 0.007493500780675703,
        "Eccentricity": 0.0,
        "Inclination(deg)": 45.0,
        "Latitude(deg)": -45.15102267109653,
        "Longitude(deg)": 158.6730961128876,
        "Mean Anomaly(deg)": -90.5941574687626,
        "RAAN(deg)": 349.99292635430385,
        "Satellite Name": "Constellation 1 1556",
        "Satellite Number": 1556,
        "Semi-Major Axis(m)": 7083131.272910544,
        "Time(s)": 125
    },
    {
        "Altitude(m)": 717881.3415986898,
        "Argument of Periapsis(deg)": 0.007553448786921108,
        "Eccentricity": 0.0,
        "Inclination(deg)": 45.0,
        "Latitude(deg)": -45.151610527893595,
        "Longitude(deg)": 158.75461648643267,
        "Mean Anomaly(deg)": -90.53345632851271,
        "RAAN(deg)": 349.99286976513827,
        "Satellite Name": "Constellation 1 1556",
        "Satellite Number": 1556,
        "Semi-Major Axis(m)": 7083131.272910544,
        "Time(s)": 126
    },
    {
        "Altitude(m)": 717881.549543221,
        "Argument of Periapsis(deg)": 0.007613396793166514,
        "Eccentricity": 0.0,
        "Inclination(deg)": 45.0,
        "Latitude(deg)": -45.15213420949843,
        "Longitude(deg)": 158.8361386891118,
        "Mean Anomaly(deg)": -90.47275518826278,
        "RAAN(deg)": 349.9928131759727,
        "Satellite Name": "Constellation 1 1556",
        "Satellite Number": 1556,
        "Semi-Major Axis(m)": 7083131.272910544,
        "Time(s)": 127
    },
    {
        "Altitude(m)": 717881.7310836725,
        "Argument of Periapsis(deg)": 0.007673344799411918,
        "Eccentricity": 0.0,
        "Inclination(deg)": 45.0,
        "Latitude(deg)": -45.152593713590676,
        "Longitude(deg)": 158.91766236109774,
        "Mean Anomaly(deg)": -90.41205404801289,
        "RAAN(deg)": 349.9927565868071,
        "Satellite Name": "Constellation 1 1556",
        "Satellite Number": 1556,
        "Semi-Major Axis(m)": 7083131.272910544,
        "Time(s)": 128
    },
    {
        "Altitude(m)": 717881.8862193449,
        "Argument of Periapsis(deg)": 0.007733292805657325,
        "Eccentricity": 0.0,
        "Inclination(deg)": 45.0,
        "Latitude(deg)": -45.152989038134464,
        "Longitude(deg)": 158.9991873106342,
        "Mean Anomaly(deg)": -90.35135290776306,
        "RAAN(deg)": 349.9926999976416,
        "Satellite Name": "Constellation 1 1556",
        "Satellite Number": 1556,
        "Semi-Major Axis(m)": 7083131.272910544,
        "Time(s)": 129
    },
    {
        "Altitude(m)": 717882.0149496576,
        "Argument of Periapsis(deg)": 0.00779324081190273,
        "Eccentricity": 0.0,
        "Inclination(deg)": 45.0,
        "Latitude(deg)": -45.15332018137813,
        "Longitude(deg)": 159.0807133459421,
        "Mean Anomaly(deg)": -90.29065176751313,
        "RAAN(deg)": 349.992643408476,
        "Satellite Name": "Constellation 1 1556",
        "Satellite Number": 1556,
        "Semi-Major Axis(m)": 7083131.272910544,
        "Time(s)": 130
    },
    {
        "Altitude(m)": 717882.1172741096,
        "Argument of Periapsis(deg)": 0.007853188818148135,
        "Eccentricity": 0.0,
        "Inclination(deg)": 45.0,
        "Latitude(deg)": -45.153587141854295,
        "Longitude(deg)": 159.16224027522222,
        "Mean Anomaly(deg)": -90.22995062726324,
        "RAAN(deg)": 349.99258681931036,
        "Satellite Name": "Constellation 1 1556",
        "Satellite Number": 1556,
        "Semi-Major Axis(m)": 7083131.272910544,
        "Time(s)": 131
    },
    {
        "Altitude(m)": 717882.1931923033,
        "Argument of Periapsis(deg)": 0.007913136824393542,
        "Eccentricity": 0.0,
        "Inclination(deg)": 45.0,
        "Latitude(deg)": -45.15378991837991,
        "Longitude(deg)": 159.24376790666005,
        "Mean Anomaly(deg)": -90.16924948701336,
        "RAAN(deg)": 349.99253023014484,
        "Satellite Name": "Constellation 1 1556",
        "Satellite Number": 1556,
        "Semi-Major Axis(m)": 7083131.272910544,
        "Time(s)": 132
    }
]